start=new Date('2022-03-01T00:00:00.000Z').valueOf();
sats=[{"MEAN_ELEMENT_THEORY":"SGP4","EPHEMERIS_TYPE":"0","BSTAR":"0.00000266780000","TLE_LINE1":"1 45786U 20038BJ  22059.93204154 -.00000242  00000-0  26678-5 0  9992","GP_ID":"197408362","MEAN_MOTION":"15.06400000","PERIAPSIS":"546.234","CENTER_NAME":"EARTH","REF_FRAME":"TEME","ARG_OF_PERICENTER":"59.8233","TIME_SYSTEM":"UTC","MEAN_MOTION_DOT":"-0.00000242","MEAN_MOTION_DDOT":"0.0000000000000","OBJECT_NAME":"STARLINK-1513","SEMIMAJOR_AXIS":"6925.349","PERIOD":"95.592","COUNTRY_CODE":"US","APOAPSIS":"548.193","NORAD_CAT_ID":"45786","FILE":"3334872","TLE_LINE2":"2 45786  53.0567 314.6161 0001414  59.8233 300.2895 15.06400000 95232","OBJECT_TYPE":"PAYLOAD","REV_AT_EPOCH":"9523","RCS_SIZE":"LARGE","OBJECT_ID":"2020-038BJ","MEAN_ANOMALY":"300.2895","ECCENTRICITY":"0.00014140","SITE":"AFETR","DECAY_DATE":null,"ELEMENT_SET_NO":"999","CLASSIFICATION_TYPE":"U","INCLINATION":"53.0567","RA_OF_ASC_NODE":"314.6161","LAUNCH_DATE":"2020-06-13","EPOCH":"2022-02-28T22:22:08.389056"},{"MEAN_ANOMALY":"293.9220","ECCENTRICITY":"0.00016880","SITE":"AFETR","DECAY_DATE":null,"ELEMENT_SET_NO":"999","CLASSIFICATION_TYPE":"U","INCLINATION":"53.0551","RA_OF_ASC_NODE":"314.5900","LAUNCH_DATE":"2020-06-13","EPOCH":"2022-02-28T22:32:45.021408","MEAN_ELEMENT_THEORY":"SGP4","EPHEMERIS_TYPE":"0","BSTAR":"0.00054673000000","TLE_LINE1":"1 45787U 20038BK  22059.93940997  .00007874  00000-0  54673-3 0  9996","GP_ID":"197409114","PERIAPSIS":"546.004","CENTER_NAME":"EARTH","MEAN_MOTION":"15.06413309","REF_FRAME":"TEME","TIME_SYSTEM":"UTC","ARG_OF_PERICENTER":"66.1945","MEAN_MOTION_DOT":"0.00007874","OBJECT_NAME":"STARLINK-1517","MEAN_MOTION_DDOT":"0.0000000000000","SEMIMAJOR_AXIS":"6925.308","PERIOD":"95.591","COUNTRY_CODE":"US","APOAPSIS":"548.342","NORAD_CAT_ID":"45787","FILE":"3334872","TLE_LINE2":"2 45787  53.0551 314.5900 0001688  66.1945 293.9220 15.06413309 95236","OBJECT_TYPE":"PAYLOAD","REV_AT_EPOCH":"9523","RCS_SIZE":"LARGE","OBJECT_ID":"2020-038BK"},{"RCS_SIZE":"LARGE","OBJECT_ID":"2020-055A","OBJECT_TYPE":"PAYLOAD","REV_AT_EPOCH":"8733","COUNTRY_CODE":"US","APOAPSIS":"548.262","NORAD_CAT_ID":"46027","TLE_LINE2":"2 46027  53.0529 245.2954 0001523  76.2515 283.8643 15.06402051 87332","FILE":"3334872","MEAN_MOTION_DOT":"0.00002089","MEAN_MOTION_DDOT":"0.0000000000000","OBJECT_NAME":"STARLINK-1522","SEMIMAJOR_AXIS":"6925.342","PERIOD":"95.592","GP_ID":"197408387","PERIAPSIS":"546.153","CENTER_NAME":"EARTH","MEAN_MOTION":"15.06402051","REF_FRAME":"TEME","ARG_OF_PERICENTER":"76.2515","TIME_SYSTEM":"UTC","BSTAR":"0.00015912000000","TLE_LINE1":"1 46027U 20055A   22059.78000276  .00002089  00000-0  15912-3 0  9999","MEAN_ELEMENT_THEORY":"SGP4","EPHEMERIS_TYPE":"0","EPOCH":"2022-02-28T18:43:12.238464","RA_OF_ASC_NODE":"245.2954","LAUNCH_DATE":"2020-08-07","INCLINATION":"53.0529","DECAY_DATE":null,"ELEMENT_SET_NO":"999","CLASSIFICATION_TYPE":"U","SITE":"AFETR","MEAN_ANOMALY":"283.8643","ECCENTRICITY":"0.00015230"},{"BSTAR":"0.00001018700000","TLE_LINE1":"1 46028U 20055B   22059.72840091 -.00000130  00000-0  10187-4 0  9997","EPHEMERIS_TYPE":"0","MEAN_ELEMENT_THEORY":"SGP4","MEAN_MOTION_DOT":"-0.00000130","MEAN_MOTION_DDOT":"0.0000000000000","OBJECT_NAME":"STARLINK-1523","SEMIMAJOR_AXIS":"6925.359","PERIOD":"95.592","CENTER_NAME":"EARTH","GP_ID":"197409139","PERIAPSIS":"546.178","MEAN_MOTION":"15.06396531","REF_FRAME":"TEME","TIME_SYSTEM":"UTC","ARG_OF_PERICENTER":"79.9431","OBJECT_TYPE":"PAYLOAD","REV_AT_EPOCH":"8734","COUNTRY_CODE":"US","NORAD_CAT_ID":"46028","APOAPSIS":"548.271","FILE":"3334872","TLE_LINE2":"2 46028  53.0531 245.5231 0001511  79.9431 280.1728 15.06396531 87341","RCS_SIZE":"LARGE","OBJECT_ID":"2020-055B","SITE":"AFETR","MEAN_ANOMALY":"280.1728","ECCENTRICITY":"0.00015110","DECAY_DATE":null,"ELEMENT_SET_NO":"999","CLASSIFICATION_TYPE":"U","RA_OF_ASC_NODE":"245.5231","LAUNCH_DATE":"2020-08-07","INCLINATION":"53.0531","EPOCH":"2022-02-28T17:28:53.838624"},{"EPOCH":"2022-02-28T22:04:53.508864","INCLINATION":"53.0513","RA_OF_ASC_NODE":"244.6808","LAUNCH_DATE":"2020-08-07","DECAY_DATE":null,"ELEMENT_SET_NO":"999","CLASSIFICATION_TYPE":"U","MEAN_ANOMALY":"279.0153","ECCENTRICITY":"0.00016480","SITE":"AFETR","RCS_SIZE":"LARGE","OBJECT_ID":"2020-055C","APOAPSIS":"548.309","NORAD_CAT_ID":"46029","COUNTRY_CODE":"US","TLE_LINE2":"2 46029  53.0513 244.6808 0001648  81.1022 279.0153 15.06414986 87360","FILE":"3334872","OBJECT_TYPE":"PAYLOAD","REV_AT_EPOCH":"8736","GP_ID":"197409889","PERIAPSIS":"546.026","MEAN_MOTION":"15.06414986","CENTER_NAME":"EARTH","ARG_OF_PERICENTER":"81.1022","TIME_SYSTEM":"UTC","REF_FRAME":"TEME","OBJECT_NAME":"STARLINK-1526","MEAN_MOTION_DDOT":"0.0000000000000","MEAN_MOTION_DOT":"0.00005302","PERIOD":"95.591","SEMIMAJOR_AXIS":"6925.303","MEAN_ELEMENT_THEORY":"SGP4","EPHEMERIS_TYPE":"0","TLE_LINE1":"1 46029U 20055C   22059.92006376  .00005302  00000-0  37443-3 0  9998","BSTAR":"0.00037443000000"},{"TLE_LINE1":"1 46030U 20055D   22059.80580251  .00001067  00000-0  90546-4 0  9994","BSTAR":"0.00009054600000","EPHEMERIS_TYPE":"0","MEAN_ELEMENT_THEORY":"SGP4","MEAN_MOTION_DDOT":"0.0000000000000","OBJECT_NAME":"STARLINK-1534","MEAN_MOTION_DOT":"0.00001067","PERIOD":"95.592","SEMIMAJOR_AXIS":"6925.358","GP_ID":"197408637","MEAN_MOTION":"15.06396885","PERIAPSIS":"546.279","CENTER_NAME":"EARTH","ARG_OF_PERICENTER":"99.3135","TIME_SYSTEM":"UTC","REF_FRAME":"TEME","OBJECT_TYPE":"PAYLOAD","REV_AT_EPOCH":"8730","APOAPSIS":"548.167","NORAD_CAT_ID":"46030","COUNTRY_CODE":"US","TLE_LINE2":"2 46030  53.0527 245.1708 0001363  99.3135 260.8008 15.06396885 87300","FILE":"3334872","RCS_SIZE":"LARGE","OBJECT_ID":"2020-055D","SITE":"AFETR","MEAN_ANOMALY":"260.8008","ECCENTRICITY":"0.00013630","DECAY_DATE":null,"ELEMENT_SET_NO":"999","CLASSIFICATION_TYPE":"U","RA_OF_ASC_NODE":"245.1708","LAUNCH_DATE":"2020-08-07","INCLINATION":"53.0527","EPOCH":"2022-02-28T19:20:21.336864"},{"EPOCH":"2022-02-28T19:25:39.280224","INCLINATION":"53.0540","LAUNCH_DATE":"2020-08-07","RA_OF_ASC_NODE":"245.1644","ELEMENT_SET_NO":"999","CLASSIFICATION_TYPE":"U","DECAY_DATE":null,"ECCENTRICITY":"0.00015630","MEAN_ANOMALY":"281.1135","SITE":"AFETR","OBJECT_ID":"2020-055E","RCS_SIZE":"LARGE","FILE":"3334872","TLE_LINE2":"2 46031  53.0540 245.1644 0001563  79.0029 281.1135 15.06403732 87334","COUNTRY_CODE":"US","NORAD_CAT_ID":"46031","APOAPSIS":"548.285","REV_AT_EPOCH":"8733","OBJECT_TYPE":"PAYLOAD","REF_FRAME":"TEME","ARG_OF_PERICENTER":"79.0029","TIME_SYSTEM":"UTC","GP_ID":"197408887","CENTER_NAME":"EARTH","PERIAPSIS":"546.120","MEAN_MOTION":"15.06403732","SEMIMAJOR_AXIS":"6925.337","PERIOD":"95.592","MEAN_MOTION_DOT":"0.00001724","OBJECT_NAME":"STARLINK-1544","MEAN_MOTION_DDOT":"0.0000000000000","MEAN_ELEMENT_THEORY":"SGP4","EPHEMERIS_TYPE":"0","BSTAR":"0.00013460000000","TLE_LINE1":"1 46031U 20055E   22059.80948241  .00001724  00000-0  13460-3 0  9991"},{"MEAN_ELEMENT_THEORY":"SGP4","EPHEMERIS_TYPE":"0","BSTAR":"0.00029206000000","TLE_LINE1":"1 46032U 20055F   22059.77262513  .00004073  00000-0  29206-3 0  9994","PERIAPSIS":"546.156","GP_ID":"197409639","MEAN_MOTION":"15.06410830","CENTER_NAME":"EARTH","REF_FRAME":"TEME","TIME_SYSTEM":"UTC","ARG_OF_PERICENTER":"68.5158","MEAN_MOTION_DOT":"0.00004073","MEAN_MOTION_DDOT":"0.0000000000000","OBJECT_NAME":"STARLINK-1555","SEMIMAJOR_AXIS":"6925.315","PERIOD":"95.591","COUNTRY_CODE":"US","NORAD_CAT_ID":"46032","APOAPSIS":"548.205","TLE_LINE2":"2 46032  53.0541 245.3202 0001479  68.5158 291.5989 15.06410830 87340","FILE":"3334872","OBJECT_TYPE":"PAYLOAD","REV_AT_EPOCH":"8734","RCS_SIZE":"LARGE","OBJECT_ID":"2020-055F","MEAN_ANOMALY":"291.5989","ECCENTRICITY":"0.00014790","SITE":"AFETR","DECAY_DATE":null,"CLASSIFICATION_TYPE":"U","ELEMENT_SET_NO":"999","INCLINATION":"53.0541","RA_OF_ASC_NODE":"245.3202","LAUNCH_DATE":"2020-08-07","EPOCH":"2022-02-28T18:32:34.811232"},{"DECAY_DATE":null,"CLASSIFICATION_TYPE":"U","ELEMENT_SET_NO":"999","SITE":"AFETR","MEAN_ANOMALY":"287.2520","ECCENTRICITY":"0.00015910","EPOCH":"2022-02-28T21:17:08.071872","RA_OF_ASC_NODE":"244.8222","LAUNCH_DATE":"2020-08-07","INCLINATION":"53.0544","MEAN_MOTION_DOT":"0.00000417","MEAN_MOTION_DDOT":"0.0000000000000","OBJECT_NAME":"STARLINK-1556","SEMIMAJOR_AXIS":"6925.357","PERIOD":"95.592","PERIAPSIS":"546.120","GP_ID":"197409390","CENTER_NAME":"EARTH","MEAN_MOTION":"15.06397208","REF_FRAME":"TEME","ARG_OF_PERICENTER":"72.8643","TIME_SYSTEM":"UTC","BSTAR":"0.00004692700000","TLE_LINE1":"1 46033U 20055G   22059.88689898  .00000417  00000-0  46927-4 0  9994","EPHEMERIS_TYPE":"0","MEAN_ELEMENT_THEORY":"SGP4","RCS_SIZE":"LARGE","OBJECT_ID":"2020-055G","OBJECT_TYPE":"PAYLOAD","REV_AT_EPOCH":"8733","COUNTRY_CODE":"US","APOAPSIS":"548.324","NORAD_CAT_ID":"46033","TLE_LINE2":"2 46033  53.0544 244.8222 0001591  72.8643 287.2520 15.06397208 87337","FILE":"3334872"},{"OBJECT_TYPE":"PAYLOAD","REV_AT_EPOCH":"8733","COUNTRY_CODE":"US","NORAD_CAT_ID":"46034","APOAPSIS":"548.256","FILE":"3334872","TLE_LINE2":"2 46034  53.0542 244.8151 0001487  71.5481 288.5669 15.06395725 87337","RCS_SIZE":"LARGE","OBJECT_ID":"2020-055H","BSTAR":"-0.00000263920000","TLE_LINE1":"1 46034U 20055H   22059.89058426 -.00000321  00000-0 -26392-5 0  9994","EPHEMERIS_TYPE":"0","MEAN_ELEMENT_THEORY":"SGP4","MEAN_MOTION_DOT":"-0.00000321","MEAN_MOTION_DDOT":"0.0000000000000","OBJECT_NAME":"STARLINK-1557","SEMIMAJOR_AXIS":"6925.362","PERIOD":"95.592","GP_ID":"197408138","PERIAPSIS":"546.197","MEAN_MOTION":"15.06395725","CENTER_NAME":"EARTH","REF_FRAME":"TEME","TIME_SYSTEM":"UTC","ARG_OF_PERICENTER":"71.5481","RA_OF_ASC_NODE":"244.8151","LAUNCH_DATE":"2020-08-07","INCLINATION":"53.0542","EPOCH":"2022-02-28T21:22:26.480064","SITE":"AFETR","MEAN_ANOMALY":"288.5669","ECCENTRICITY":"0.00014870","DECAY_DATE":null,"ELEMENT_SET_NO":"999","CLASSIFICATION_TYPE":"U"}];
